[{"OBJECT_NAME":"STARLINK-35177","OBJECT_ID":"2025-211X","EPOCH":"2026-03-09T15:56:19.993056","MEAN_MOTION":15.05649843,"ECCENTRICITY":0.00016962,"INCLINATION":97.6037,"RA_OF_ASC_NODE":114.1278,"ARG_OF_PERICENTER":107.8979,"MEAN_ANOMALY":252.2432,"EPHEMERIS_TYPE":0,"CLASSIFICATION_TYPE":"U","NORAD_CAT_ID":65673,"ELEMENT_SET_NO":999,"REV_AT_EPOCH":2704,"BSTAR":0.00045786336,"MEAN_MOTION_DOT":6.552e-5,"MEAN_MOTION_DDOT":0},{"OBJECT_NAME":"COSMOS 397 DEB","OBJECT_ID":"1971-015AG","EPOCH":"2026-03-09T22:22:53.777568","MEAN_MOTION":14.12365411,"ECCENTRICITY":0.0445918,"INCLINATION":65.7074,"RA_OF_ASC_NODE":278.293,"ARG_OF_PERICENTER":75.555,"MEAN_ANOMALY":289.457,"EPHEMERIS_TYPE":0,"CLASSIFICATION_TYPE":"U","NORAD_CAT_ID":5144,"ELEMENT_SET_NO":999,"REV_AT_EPOCH":68427,"BSTAR":0.0016503671,"MEAN_MOTION_DOT":7.82e-5,"MEAN_MOTION_DDOT":0}]
